{"type":"FeatureCollection","features":[{"type":"Feature","id":3,"geometry":{"type":"Polygon","coordinates":[[[-90.096399727843149,34.970787196689095],[-90.096395706066588,34.970445116729515],[-90.096395720900304,34.97043996508345],[-90.096395735734006,34.97043481343735],[-90.096394341747725,34.970339332104963],[-90.096392234946549,34.970201606545047],[-90.096390952605987,34.97006697359577],[-90.096388276400305,34.969837202748437],[-90.09638367923975,34.96969535097756],[-90.096381412257969,34.969613263188442],[-90.096380553313608,34.969331979110187],[-90.096375679411736,34.968996079417138],[-90.096372375516424,34.968694528180329],[-90.096370689083031,34.96841083832912],[-90.096366550682859,34.968108941088317],[-90.096367064934526,34.96793035061993],[-90.096361358689578,34.967593762334637],[-90.096356645968626,34.96749209336997],[-90.096356668714904,34.967484194175476],[-90.096357174075479,34.967308694678053],[-90.096349172221949,34.966899634941456],[-90.096348369838637,34.966599117915706],[-90.096343341777157,34.966316451781495],[-90.096341780052526,34.965989488862185],[-90.096339108005338,34.965758344087064],[-90.096337934777566,34.965586619162323],[-90.096331980414973,34.965335891585127],[-90.096329602133864,34.965002745003979],[-90.096328924987262,34.964948134976808],[-90.096319699807324,34.964384865735553],[-90.096318297066574,34.964292476200015],[-90.096317997729287,34.964106671679453],[-90.096317790370406,34.963888926011833],[-90.096311980663302,34.96358839906511],[-90.096309296867076,34.963361376421595],[-90.096308552485326,34.963330121437288],[-90.09631090267554,34.963093491235263],[-90.096310149415586,34.963066840744567],[-90.096306963601833,34.963063585767898],[-90.09626505597619,34.96248345979167],[-90.096223494200331,34.961864814441853],[-90.09622020286875,34.961559140625496],[-90.096217057974471,34.961202637142534],[-90.096217188199262,34.960867777101754],[-90.096214238583741,34.960733140689541],[-90.096210475398109,34.960591290329234],[-90.096293915767021,34.96058973597605],[-90.096293144707516,34.960567753955466],[-90.096290664888798,34.960437238900475],[-90.096288072682981,34.960300885949962],[-90.096285208020149,34.960136713372414],[-90.096284440667148,34.959942719203021],[-90.096283759245978,34.959770596640588],[-90.096278008215933,34.959449806312129],[-90.096275715238846,34.959087122347626],[-90.096267710494928,34.958679780178343],[-90.096265795595912,34.958533345990752],[-90.096264291472963,34.958418410446498],[-90.096264356748307,34.958395743158945],[-90.096261817567736,34.958118576630085],[-90.096261617199318,34.957898427543078],[-90.096255311913936,34.957480440891523],[-90.09625388995299,34.957105051016526],[-90.096245502696718,34.956830620579808],[-90.096245802806223,34.956436687953278],[-90.096245101023825,34.95639066484712],[-90.096243381400868,34.956118652414908],[-90.096243443709326,34.956097015450453],[-90.096249358449668,34.955781399385202],[-90.096248509711032,34.955496680227931],[-90.096254058462449,34.955308139286267],[-90.096255904084288,34.955246666080079],[-90.096261777162525,34.954945474615286],[-90.096263321485765,34.954698883484966],[-90.096266522515648,34.954456416027426],[-90.096269723519853,34.954213949461476],[-90.096273838884954,34.953943664648243],[-90.096278675777569,34.953712534970379],[-90.096278833114937,34.95370770359694],[-90.096280420606831,34.953659049148115],[-90.096294231948306,34.953235517087201],[-90.096293547952229,34.953183311964203],[-90.096292945830584,34.953153248899653],[-90.096289171104601,34.95296487177778],[-90.096289903741905,34.95271037882295],[-90.09629629336618,34.95251943531111],[-90.096297875239671,34.952471578609796],[-90.096298121088338,34.952464143167795],[-90.096297614063573,34.952350461545564],[-90.096297865182493,34.952263226744947],[-90.096300920641696,34.952071246374246],[-90.096308258139331,34.951840807493788],[-90.09631010955917,34.95177727358638],[-90.096313060176982,34.951621698278373],[-90.096315008468423,34.951524505941336],[-90.096313556438659,34.951449288418125],[-90.096309491688118,34.947354363442656],[-90.096317676693531,34.946829249086065],[-90.096324274198508,34.946275968983961],[-90.096334550631553,34.939515230001653],[-90.096378057046778,34.93918010992671],[-90.096369902508187,34.938534756606551],[-90.096365094927904,34.938176187852228],[-90.096349573169448,34.936902653908078],[-90.096363488967526,34.936704512188086],[-90.096376563679812,34.933878279062419],[-90.096369847006017,34.933202345867414],[-90.095305930431195,34.933203743045887],[-90.09461447473771,34.933204103683437],[-90.094254151502383,34.933203738636571],[-90.093892991302596,34.933204744660024],[-90.093558517461773,34.933206832619092],[-90.0932215384709,34.933210288494855],[-90.09283282255052,34.933221540318783],[-90.092610111914794,34.933224877186802],[-90.092343183227626,34.933232590760596],[-90.09188357055622,34.933243698903617],[-90.091545746123117,34.933250582921467],[-90.091160376303534,34.93325874502893],[-90.090785020311657,34.933264865222668],[-90.09048139600138,34.933271127655836],[-90.090084349852788,34.9332785761164],[-90.089805085278627,34.933285714947814],[-90.089685627361632,34.933288767493984],[-90.089297755922715,34.933296231781895],[-90.088911553670457,34.93330369818937],[-90.088533687974589,34.93331221050726],[-90.088256595376478,34.933319169867808],[-90.088103268169476,34.933323019715928],[-90.087611125490099,34.933334046933091],[-90.087483856031383,34.933336484764986],[-90.08735171095222,34.93333901625774],[-90.08718990296633,34.933337658217191],[-90.087068977038854,34.933331918020542],[-90.086963077940965,34.933322086811209],[-90.086800477022251,34.933306988763519],[-90.086414405179099,34.933270486279383],[-90.085966031490784,34.933226332357386],[-90.085935876646801,34.933223362927528],[-90.08590159530857,34.933219986652048],[-90.085807830438327,34.933212951963313],[-90.085769840136223,34.933210101744351],[-90.085571373362541,34.933195272414316],[-90.085420425163107,34.933188095563636],[-90.085228610433731,34.933180148187141],[-90.084958381169699,34.933175474703127],[-90.084676468718925,34.933173180837123],[-90.084669796112479,34.933173167180875],[-90.084243583328046,34.933171950681867],[-90.083749807310994,34.933171624258215],[-90.083376136180775,34.933172573318522],[-90.082866511703557,34.933172554146175],[-90.082611286587422,34.933170997394903],[-90.082317685684359,34.93317245185208],[-90.082002406094318,34.933171113181388],[-90.081733002820044,34.933169525255465],[-90.081431073718647,34.933166495512957],[-90.081129993436051,34.933158658524505],[-90.080793044860357,34.933152120029234],[-90.080516144453313,34.93314707935221],[-90.080464433894164,34.933146284846529],[-90.080215044337876,34.933146108994812],[-90.079972317845176,34.93314869410159],[-90.07965869392271,34.933151817612348],[-90.07931837424313,34.933156258291817],[-90.078987237876731,34.933158313114028],[-90.078613556195236,34.933162338527175],[-90.078443396334819,34.933164729245611],[-90.078176478379135,34.933168290351816],[-90.077933750748656,34.933171558277159],[-90.077569241673388,34.933176286653207],[-90.077235602959988,34.933177987986447],[-90.077222257753988,34.933177959856323],[-90.076916969071405,34.933182811093801],[-90.076610851607839,34.933185599131306],[-90.076592501948767,34.933185560357614],[-90.076278874599495,34.933189705476771],[-90.075903522399926,34.933194405913646],[-90.075679969776331,34.933200457537659],[-90.075523148519423,34.933204589685992],[-90.075258728292681,34.933209866916073],[-90.075005974309377,34.933218259397968],[-90.074837472716013,34.93322373961368],[-90.074751554298942,34.933226304361241],[-90.074487946446794,34.933238107133782],[-90.07425277294935,34.933249172200043],[-90.074243524443133,34.933249606801795],[-90.073940708391632,34.933263385451824],[-90.073499537283737,34.933287665836964],[-90.072342657497785,34.933353515048921],[-90.072071758241293,34.933362072479831],[-90.071870142789322,34.93336916575695],[-90.071537958708106,34.933367871722631],[-90.071017134998883,34.933346337171351],[-90.070655232438924,34.933329686411206],[-90.070171785370164,34.933309838101451],[-90.069908624369873,34.933302792806948],[-90.069731799127879,34.933302752743508],[-90.069647555244174,34.933302913386164],[-90.069546481511125,34.933305263075766],[-90.069519800944349,34.933305883025469],[-90.069242161227493,34.933312336294001],[-90.06921129820617,34.933312956099186],[-90.069045603581756,34.933315742696912],[-90.069006769601685,34.933316396492913],[-90.068704981981853,34.933321470886128],[-90.068544214426694,34.933323475169672],[-90.068306273660198,34.933326441324773],[-90.068043232600601,34.93333045736977],[-90.067774936104101,34.93333455330491],[-90.067542619322424,34.933337178696746],[-90.067342030555665,34.933339444927739],[-90.067235264343751,34.933340585830138],[-90.067027191515194,34.933343281360351],[-90.066951504682109,34.933344262067813],[-90.066813122225497,34.933346054425357],[-90.066805161987716,34.933346157755693],[-90.06674835553612,34.933346893997694],[-90.066736461157817,34.933347047284691],[-90.066679043192693,34.933348008412715],[-90.066638374551303,34.933348688975251],[-90.066581571783743,34.933349638787533],[-90.066210125588967,34.933355851191301],[-90.065682963652421,34.933362247770809],[-90.065580794200983,34.933363541575027],[-90.06555192412813,34.933363907032017],[-90.065376853738073,34.933366124395839],[-90.065082398448268,34.933369852906374],[-90.065062379496894,34.93337015125099],[-90.064554401176466,34.933376584388306],[-90.064072271308731,34.93338547681666],[-90.063705255134593,34.933391532726525],[-90.063161369653443,34.933410587879735],[-90.062746791803761,34.933422029369851],[-90.062330538917365,34.933435526389509],[-90.062053598226555,34.933443151076155],[-90.061987695998212,34.933445751486346],[-90.061661540167293,34.933454639142255],[-90.061347897736297,34.933462523595296],[-90.060975011886825,34.933477830277418],[-90.060703077728036,34.933484432767557],[-90.060436147951449,34.93349138933619],[-90.060356070874079,34.933492583235029],[-90.060031596536106,34.933497348931276],[-90.059739653514541,34.933501156680329],[-90.059436043613417,34.933502189853279],[-90.05906904730216,34.933501705411039],[-90.058698720416615,34.933499495098104],[-90.05827585236743,34.933495790933421],[-90.057870509227101,34.933489034010663],[-90.057707868767082,34.933487291372245],[-90.057316698136063,34.93348262543276],[-90.057080660130922,34.933480028295804],[-90.056984743572315,34.933479123276463],[-90.056660295677403,34.933475980754295],[-90.056411750029113,34.93347232349484],[-90.05639673664416,34.933472289274931],[-90.056254949339646,34.93347024877496],[-90.05604810751413,34.933467029317725],[-90.055711152101679,34.933462481928643],[-90.055594382509014,34.933461871607513],[-90.05536000815988,34.933460648717848],[-90.055028050259608,34.933458514994996],[-90.054926294062625,34.933457938420837],[-90.054477566692981,34.933454848672113],[-90.054239866558348,34.933450524968208],[-90.054168139464494,34.933449329842084],[-90.05383451241579,34.933447189023106],[-90.053500878321017,34.933447451398642],[-90.053113031669909,34.933446557495159],[-90.0530154447261,34.933446332383198],[-90.052886161710262,34.933446377481225],[-90.052471622298825,34.933446106807075],[-90.052441594377839,34.93344638083569],[-90.052142152829632,34.933447748865312],[-90.051845238065241,34.93344225307753],[-90.051769335947526,34.933442420649193],[-90.051484907787653,34.933443821850702],[-90.051100404502165,34.93344121204494],[-90.050761767279283,34.933440768383271],[-90.050394766759169,34.933441631516558],[-90.050209603024257,34.933440856727785],[-90.050026107447167,34.933440085546657],[-90.049718327526492,34.933440741265471],[-90.049359684349582,34.933436812527376],[-90.049005200838252,34.933436326931648],[-90.048943481581546,34.933435495587759],[-90.048720791678505,34.933432226560257],[-90.048333780429573,34.933431319357304],[-90.048062705844885,34.933430339743666],[-90.048011827213969,34.933430220272562],[-90.04779162889065,34.93343004641293],[-90.047571432856799,34.933429528712978],[-90.047334558887584,34.933427941016305],[-90.047118530959693,34.933427775753565],[-90.047045129900951,34.933428289712253],[-90.046923352443955,34.93342868959725],[-90.046905836851749,34.933428648306027],[-90.04672233539543,34.933429589354539],[-90.046497115901033,34.933434209556474],[-90.046426211083784,34.9334364462675],[-90.046229344053074,34.933443193601398],[-90.046030812535747,34.93344856289378],[-90.045818944063754,34.933451839621966],[-90.04565628965824,34.933454202177678],[-90.045332663486391,34.933454465818485],[-90.045170012669644,34.933455797391822],[-90.044965654552527,34.933457716657969],[-90.044556956133391,34.933457089395489],[-90.044099072679643,34.933448787854552],[-90.043697047051324,34.933447830137872],[-90.043440169840153,34.933442065802438],[-90.043118216741419,34.933440953750313],[-90.042953898995975,34.933441934928545],[-90.042955033092156,34.933120112858731],[-90.042955128844071,34.933092941142966],[-90.042956191273973,34.93279145074294],[-90.042957474142625,34.932427399480659],[-90.042958051424591,34.932263576811117],[-90.042959226551289,34.93193009201314],[-90.042959752990669,34.93178069396906],[-90.042961280251276,34.931347266997093],[-90.042962460165555,34.931012408373292],[-90.04296400915068,34.930572799356959],[-90.042965604082994,34.93012014034278],[-90.042966855320756,34.929765018461175],[-90.042967540226442,34.929570628310294],[-90.042971384865851,34.928479406854258],[-90.042975266552659,34.92737761055065],[-90.042979168069508,34.926270125133925],[-90.042991719705782,34.922586548951706],[-90.04300390995256,34.919008665833275],[-90.043002330605191,34.918955557519979],[-90.043000526179071,34.918894886515467],[-90.042689915733121,34.918894921054644],[-90.042603187174947,34.918894713592429],[-90.042477261558219,34.918895099152031],[-90.042348003981829,34.918894102813091],[-90.042260434226719,34.918895952874898],[-90.042202885885629,34.918897876603587],[-90.042116156118141,34.9188980113368],[-90.042037752280677,34.918901945690678],[-90.041996053429969,34.918902532622127],[-90.041923498014427,34.918903388093952],[-90.04185344437677,34.918904251326168],[-90.041703321578908,34.918908012515494],[-90.041585732798779,34.918909104052808],[-90.041474815444474,34.918910211499494],[-90.041333047598499,34.918909870928765],[-90.041184601147549,34.918911231373606],[-90.04115040886191,34.918911492613859],[-90.041016139067892,34.918913230385783],[-90.040907728362413,34.918912969554988],[-90.040817662866502,34.918913096235713],[-90.040605007570207,34.918913271053846],[-90.040343984302027,34.918913671438474],[-90.040286442014263,34.918913877037149],[-90.039960371231473,34.9189141206191],[-90.039741043165876,34.91891496380908],[-90.039500879251648,34.91891198010623],[-90.039430114007715,34.918911369076035],[-90.0392798931328,34.918910071777212],[-90.03918551898218,34.918910503226378],[-90.038936304981576,34.918911644011089],[-90.038778693754296,34.918910918629464],[-90.038575227525939,34.91890699080038],[-90.038401761982882,34.918908630604228],[-90.038281673855082,34.918909025983531],[-90.038244971903524,34.918908423947947],[-90.038183275238822,34.918907413241776],[-90.037887229625099,34.918906693840718],[-90.037613687629516,34.918909805502551],[-90.03751444649626,34.918909368346611],[-90.037440231791024,34.918909040727414],[-90.037272606197106,34.918910006244396],[-90.037077459596802,34.91891159133403],[-90.03693986021068,34.91891159924765],[-90.036783904664006,34.918913966343062],[-90.036669650322381,34.918915404707434],[-90.03654622647629,34.918915790228198],[-90.036410286285616,34.918918205725696],[-90.036277685656472,34.918919255445367],[-90.036114225822956,34.918921603336784],[-90.035958281246238,34.918921221820689],[-90.035841527579819,34.918921966395537],[-90.035587164741997,34.918925121347385],[-90.035431220166103,34.918924739154903],[-90.035236078632096,34.918924604063051],[-90.035090980098019,34.918922874250292],[-90.034925867296181,34.918921095118449],[-90.034744909869246,34.918919276831275],[-90.034549768357522,34.918919140637385],[-90.034367974528479,34.918918006627067],[-90.034157819675727,34.918918863208745],[-90.034006039937026,34.918919519782804],[-90.033956836935417,34.918919742023689],[-90.033751690639434,34.918919236452716],[-90.033576567005341,34.918918461149524],[-90.033398946745393,34.918915962195321],[-90.033205481711775,34.91891376729675],[-90.03301368845635,34.918910202432613],[-90.032919453355646,34.918910312954672],[-90.032843565920004,34.918910125327116],[-90.032698474997233,34.918906331992794],[-90.032510021098787,34.918902087700559],[-90.032290723343522,34.918894332237429],[-90.032195661863327,34.918892379467358],[-90.032149798353032,34.918891578910248],[-90.032053067769951,34.918889965339055],[-90.031842945813764,34.918881544020884],[-90.031753729388356,34.918877545624248],[-90.031616991685738,34.918869992907482],[-90.031497753901803,34.918865919780721],[-90.031341808401919,34.918865532338259],[-90.031240903199944,34.918865281535332],[-90.031144171412123,34.918864010685049],[-90.031057439199557,34.918864825315346],[-90.030936523526123,34.91886349414105],[-90.030859806169218,34.918861928518986],[-90.030492899643505,34.918855177002683],[-90.030462880790452,34.918854415294433],[-90.030289438010314,34.918849860622281],[-90.029746574279827,34.918842323579106],[-90.029581443000211,34.918845345401664],[-90.029529736998086,34.918845903040797],[-90.029302887335291,34.918851175203784],[-90.029257017550776,34.918852090775573],[-90.028997632205389,34.918860370173562],[-90.028965105242989,34.918861319951709],[-90.028727424611944,34.918863815432196],[-90.028503905667804,34.918870123892468],[-90.028268740764673,34.918868846866573],[-90.028041076306138,34.918868618570727],[-90.028004386062307,34.918867838593222],[-90.027760892090683,34.918863792980318],[-90.027474870604223,34.918858608604801],[-90.027263893473389,34.918856359267942],[-90.02715131589224,34.918855389676679],[-90.02690116227194,34.918847890187685],[-90.026601788955375,34.9188454176658],[-90.026257381248485,34.918843174062069],[-90.026055574839518,34.918841632695646],[-90.025961336004428,34.91884276905563],[-90.025767853680563,34.918845027086796],[-90.025537691212932,34.918844099982707],[-90.025426799494909,34.918838323901483],[-90.025392631596418,34.918832055272524],[-90.025376811367465,34.918825489684828],[-90.025359351698128,34.918811021555534],[-90.025101398839922,34.918882491454987],[-90.022136749999376,34.918883521729853],[-90.022120916860246,34.918880732703421],[-90.02210841832779,34.918877954018107],[-90.022096752631882,34.918875176563127],[-90.022085090422109,34.918872055668764],[-90.022074263642111,34.918868249117395],[-90.022068431541356,34.918866517844563],[-90.02206260183533,34.918864442229022],[-90.02205177635409,34.91886029223177],[-90.022045947942274,34.918857874072955],[-90.022035123756126,34.918853381531783],[-90.022024302168219,34.918848201200561],[-90.022014314504631,34.918843023906177],[-90.022007658653322,34.918838886389857],[-90.022000167586299,34.918835088377669],[-90.021993509145858,34.918831636846853],[-90.021986016779763,34.918828183179087],[-90.021978521820259,34.918825416398555],[-90.021971026861266,34.91882264961756],[-90.021962695382513,34.918820567587055],[-90.021955197830252,34.918818487692832],[-90.021946863758018,34.918817092548942],[-90.021938528385476,34.918816041749757],[-90.021930193019955,34.918814989147172],[-90.021921855056732,34.918814624333166],[-90.021913515796314,34.918814602962399],[-90.021905176535896,34.918814581591086],[-90.021896834680774,34.918815247106913],[-90.021888491524706,34.918816256967432],[-90.021880147077837,34.918817608468387],[-90.021872635255889,34.918819306451404],[-90.021864288206643,34.91882134664182],[-90.021856775089944,34.918823387166292],[-90.021850929821753,34.918825432866804],[-90.02184341410576,34.918828161179604],[-90.021835897091663,34.918831232935737],[-90.021829211404565,34.918834994618244],[-90.021822525720239,34.918838755398923],[-90.021815838741048,34.918842858721703],[-90.021809150456619,34.918847307290754],[-90.021803294806958,34.918852099638322],[-90.021797439149793,34.918856893788451],[-90.021791582200976,34.918862029579266],[-90.021786557876766,34.918867511853037],[-90.021781532250628,34.91887333847189],[-90.021777340553854,34.918879166327123],[-90.021773148856497,34.918884994182207],[-90.02176978978747,34.91889116761908],[-90.021766429423408,34.918897683598288],[-90.021763904276867,34.918903860074522],[-90.021761376537484,34.918910722536957],[-90.021758850095637,34.918917241555491],[-90.021757156282561,34.918924106155984],[-90.021756297694367,34.918930629450806],[-90.021755437808068,34.918937496189429],[-90.021755413146906,34.918944021622423],[-90.021755358632788,34.918958446263737],[-90.021756175686861,34.918962913171818],[-90.021355901084831,34.918958795183784],[-90.021015653692416,34.91895895153371],[-90.021026340012583,34.919002716678229],[-90.011421802278846,34.918970750185657],[-90.006545979808536,34.918957391744676],[-90.006368228612388,34.918959710766522],[-90.00638254556786,34.91898427825322],[-90.006511677886081,34.919205871279161],[-90.006550604630036,34.919273290670667],[-90.006670884843714,34.919473972550229],[-90.0069316855203,34.919912784555706],[-90.007120556351495,34.920233384265018],[-90.007292007944912,34.92053092779183],[-90.007446379550615,34.920795647266424],[-90.007503233861826,34.920893143033396],[-90.007612574901856,34.921080959971242],[-90.007689609738009,34.921213392583901],[-90.007925693666579,34.921617233447776],[-90.008140231135869,34.921987014034542],[-90.008507895585481,34.922615449515504],[-90.008953708442377,34.923379462789626],[-90.009504596747135,34.9243236961739],[-90.009617231786706,34.924524225731851],[-90.009702148903941,34.924693451147007],[-90.009735365868792,34.924759646341919],[-90.009922175499611,34.925131919782373],[-90.009951748342672,34.92519221433831],[-90.009964927801775,34.925219083325501],[-90.010032246524361,34.92535633103509],[-90.010225619960906,34.925812734323443],[-90.010457340770316,34.926386629415212],[-90.010585428333016,34.926706893379134],[-90.010704709359828,34.927005067593214],[-90.010706769857265,34.927010219354479],[-90.010734130867746,34.927078615334793],[-90.010744293571733,34.927104019502956],[-90.010818864689554,34.927277749926361],[-90.010880469671832,34.927435461653808],[-90.010974505221114,34.927669628021391],[-90.011028962274963,34.927806678752596],[-90.011142287875629,34.92808693420637],[-90.011238935090049,34.928311644014904],[-90.011248640232552,34.928336018386986],[-90.01135437818003,34.928596288540227],[-90.011498934665283,34.928954886212942],[-90.011636070816394,34.929291484377508],[-90.011754280914914,34.929593094493434],[-90.011777285787389,34.929651790971469],[-90.011785778091337,34.929673181043299],[-90.011939995205381,34.93006161052724],[-90.012086198557753,34.930426394722296],[-90.012253911280752,34.930837257381746],[-90.012422391509887,34.931265635775631],[-90.012576083955409,34.931636278590489],[-90.012680148534344,34.931900320964345],[-90.012759470966287,34.932092860224117],[-90.012859441426372,34.932337315185826],[-90.012966835793179,34.932603769294182],[-90.0129842935591,34.932644533993646],[-90.013054451318283,34.932808350829788],[-90.013151084316434,34.933053827970014],[-90.013244440073194,34.933284524596225],[-90.013361823351374,34.933556501579403],[-90.013380825700466,34.933603260311394],[-90.013414043005824,34.933696413600657],[-90.013212709144668,34.933695538043942],[-90.013409395643336,34.934140080704935],[-90.013490566272068,34.934340243210784],[-90.013555825666998,34.934503552837725],[-90.013616958869861,34.934655516942264],[-90.013657105025601,34.934751680241966],[-90.013729351427898,34.934924731913853],[-90.013872263868791,34.935282291786336],[-90.014033355711447,34.935684548151166],[-90.014145724400052,34.935960631559389],[-90.014237419532492,34.936190637877083],[-90.014289465202438,34.936320598090695],[-90.014380386854285,34.936535147183818],[-90.014447294006416,34.93670464263802],[-90.014491069694131,34.936816377505764],[-90.014614161078526,34.937124771606321],[-90.014648857630249,34.937211754476344],[-90.014769513141673,34.937502970612563],[-90.01477860474229,34.937524631551973],[-90.014824851789001,34.937644615471655],[-90.01495618861243,34.937978446713799],[-90.014977667358167,34.938032424023291],[-90.015041289544172,34.938189202103771],[-90.015090031744407,34.938311254025926],[-90.015123876594103,34.93840304275902],[-90.015125534229313,34.938405794668675],[-90.015127190538095,34.938408890020845],[-90.015128848173518,34.938411641930436],[-90.015130504482528,34.938414737282542],[-90.015256503085865,34.938722428851229],[-90.015309797784951,34.938858596415955],[-90.015310621307052,34.938861346139447],[-90.015384984827065,34.93904528437028],[-90.015394073011308,34.939067632142049],[-90.015458496218571,34.939233686020181],[-90.01548574431493,34.939305880961115],[-90.015532851355005,34.93941968480479],[-90.015570044282441,34.939508734590156],[-90.01560474679988,34.939594687737916],[-90.015658441178246,34.939730832741347],[-90.015704711909009,34.939845321216744],[-90.015736108606148,34.939923365522425],[-90.015808833760744,34.940099744275365],[-90.015895596725684,34.940313250916624],[-90.015898898889773,34.9403221891382],[-90.015973254430676,34.940508875419688],[-90.016057564745438,34.940709668028781],[-90.016073258786193,34.94074989218182],[-90.016197954485321,34.941068564131832],[-90.016198943471935,34.941069578121038],[-90.016215350560969,34.941109164999332],[-90.016264940929076,34.941228470146861],[-90.01631286181059,34.941348114361467],[-90.016314515575502,34.941351897482718],[-90.016394822752574,34.94156815608499],[-90.016421016810739,34.941639296071152],[-90.016449915028446,34.941716646763766],[-90.016481220655578,34.941818732727874],[-90.01649522301858,34.94186513353128],[-90.016505107208729,34.941898130107496],[-90.016513345992166,34.941924597822698],[-90.016548640087805,34.942074432233333],[-90.016568210914471,34.94219125483712],[-90.016577176712701,34.942245886096266],[-90.016586946307868,34.942308419604679],[-90.016601542627683,34.942417329975648],[-90.016626899947795,34.942547905481369],[-90.016634936583486,34.942627262406631],[-90.016637316282726,34.942659209067145],[-90.016650465894713,34.942927475389354],[-90.016650447409162,34.942932283581733],[-90.016650419680829,34.942939495870334],[-90.016650950159516,34.943018489776478],[-90.016649049426618,34.943078931273526],[-90.016647985503198,34.943138688059896],[-90.016641686782222,34.943258191659282],[-90.016630888369093,34.943463200610296],[-90.01662997100199,34.943484835299429],[-90.016620163846028,34.943648977687353],[-90.016604951428846,34.943917169123942],[-90.016597749724653,34.944054528625735],[-90.01577576277289,34.944058080647281],[-90.015210466295514,34.944060521047589],[-90.014529754907016,34.944063544800329],[-90.014478868536884,34.944063754694014],[-90.013874904441153,34.944066289301922],[-90.013334339422329,34.944068643578731],[-90.012930584070091,34.944070326922777],[-90.01252682871214,34.94407200892482],[-90.012123073348405,34.944073689584776],[-90.011719319073734,34.944075368905651],[-90.011315563698645,34.944077046881567],[-90.011275506978805,34.944077122783348],[-90.011239651893192,34.944077189980646],[-90.010602319149399,34.944079963285098],[-90.010435476502607,34.944080893712965],[-90.009931616713857,34.944082987860483],[-90.009664670759449,34.944084337588947],[-90.009422134770887,34.944085250622543],[-90.009397725057028,34.944085343285849],[-90.009130780447535,34.94408634839904],[-90.008888025984035,34.94408741753378],[-90.008646940974444,34.944088490645406],[-90.008369152009152,34.944089465100319],[-90.008092194772331,34.944090784592369],[-90.007725144655311,34.944092205454162],[-90.007727757745215,34.944275268952964],[-90.007731059754406,34.944495083869604],[-90.007734361779995,34.944714897876864],[-90.00773826720247,34.944993100136216],[-90.007739040484324,34.945047280967188],[-90.007739246196266,34.945061707132353],[-90.007740227805542,34.945130483603904],[-90.007744144383821,34.945405593963009],[-90.007747468179971,34.945619913769015],[-90.007750791725968,34.945834577012214],[-90.007754087303539,34.946055764735469],[-90.007757390776945,34.94627523524445],[-90.007758741494982,34.946355605102539],[-90.007758684470431,34.946370030560395],[-90.007703627019751,34.946369882987291],[-90.007698911484994,34.946507591973798],[-90.007691402713931,34.946718790793369],[-90.007683009441408,34.94694269561608],[-90.007675505749688,34.947152864096694],[-90.007669017374994,34.947316671063554],[-90.007667122149911,34.947374021364816],[-90.007657742407289,34.947636388498488],[-90.007639903863776,34.948139146498498],[-90.007461376342889,34.948139698042645],[-90.007360180515079,34.948139959275565],[-90.004873558054456,34.948147155729167],[-90.003490382401495,34.948151137612911],[-90.002119857199688,34.948155067026534],[-90.00174681828473,34.94815613343377],[-90.000990509511226,34.948158293413904],[-90.000675654351127,34.948159083916956],[-90.000508804803218,34.948159663532039],[-90.000210980877497,34.948160558085718],[-90.000110685024694,34.948160799521304],[-89.999944023409086,34.948161199491352],[-89.999677067036174,34.948161840313212],[-89.999410109569226,34.94816248054542],[-89.99882530544798,34.948164306016025],[-89.998639269930152,34.94816482391866],[-89.997370788662678,34.948168531950095],[-89.997370387962746,34.948168533546159],[-89.997370395508511,34.948168562412825],[-89.997421736365411,34.948464725333139],[-89.997484363729981,34.948859174497386],[-89.997546199458128,34.949243318061967],[-89.997629307267047,34.949730210462228],[-89.997698512481023,34.950148718777093],[-89.99833578792358,34.953982799775574],[-89.998440497212329,34.9539840269031],[-89.998434951260435,34.954068120460519],[-89.998429930391069,34.954144247722638],[-89.998695115744866,34.955742739101773],[-89.998698256716949,34.955766780779825],[-89.998762204850422,34.956475678273783],[-89.998818334062932,34.956740520619242],[-89.998918915343296,34.957364786216154],[-89.998958884476082,34.957589510007743],[-89.999149087133944,34.958706081788392],[-89.999204037105045,34.959268601485597],[-89.999459742923392,34.959787906933272],[-89.999602906743661,34.960078855421649],[-89.999849241242131,34.960441180078099],[-90.000273075057549,34.961064665506775],[-90.000993029880192,34.962122732268938],[-90.001254456531413,34.963090588759037],[-90.00113152347383,34.963779889856021],[-90.000630203323539,34.965188016790471],[-90.000530101707454,34.96600651460529],[-90.000730968615628,34.967095098917049],[-90.000604101485777,34.96751650176838],[-90.000970650736548,34.967458088723838],[-90.001242819721327,34.967472096888628],[-90.001992613237149,34.967510681571078],[-90.003164496018655,34.967424576789668],[-90.003640625148108,34.967298452485124],[-90.00460624339749,34.967042799976255],[-90.004761610137038,34.967001663665563],[-90.006355367638847,34.966579405509783],[-90.006884946360188,34.966438987672575],[-90.007251638904791,34.966342091155653],[-90.007524742053576,34.96626967949549],[-90.007543392895798,34.967889749917369],[-90.007547214227671,34.968222339482821],[-90.007644147151041,34.968205865359806],[-90.007707985417767,34.968181589806264],[-90.007760271427912,34.968147743432723],[-90.007828598617479,34.96808710811365],[-90.007859405406691,34.968016611538182],[-90.007930593535448,34.967938316730944],[-90.008329755988171,34.967924478683152],[-90.008427490550091,34.967937261939099],[-90.008517194071345,34.967966122247937],[-90.008571401500276,34.967996080163303],[-90.00861833193018,34.968064991857176],[-90.008656354292512,34.968127484082345],[-90.008713856263782,34.968240330776922],[-90.008762854034259,34.968305453826616],[-90.008833107418837,34.968307429999264],[-90.008960709426603,34.968277362100231],[-90.009690193684406,34.967743313542066],[-90.010061521967998,34.967837365124133],[-90.010380147072524,34.967918066799065],[-90.010483383254709,34.967871738333443],[-90.01105225975833,34.967617667264705],[-90.011596855511399,34.967477611293177],[-90.011657610999166,34.967238634928961],[-90.011560207315412,34.96697186589568],[-90.011589810435041,34.966929350016336],[-90.01188603088535,34.966504367084568],[-90.012025128341207,34.966489905765549],[-90.012083313906714,34.966520257556319],[-90.012130918817789,34.966545957907591],[-90.012150728816053,34.966557256525171],[-90.012167489615095,34.966569276331775],[-90.012194597632927,34.966590220599649],[-90.012220212072322,34.966611435848058],[-90.012233234848409,34.96662335021049],[-90.012252842560031,34.966643001817019],[-90.012270374170399,34.966664597722321],[-90.01228054636411,34.966678251512576],[-90.012296126382523,34.966698788484649],[-90.012315763354181,34.966723580105089],[-90.012334163847299,34.966747017212384],[-90.012351024281131,34.966768041628811],[-90.01236676094976,34.966787168269626],[-90.012388394575893,34.96681018393172],[-90.012406993392105,34.966826860836179],[-90.012424660162935,34.966841335788764],[-90.012442276474999,34.966854992108132],[-90.012465230499302,34.966868805854787],[-90.012488910029958,34.966875729189489],[-90.012517461670029,34.96687921201648],[-90.01255405057988,34.966876036479007],[-90.012576567267274,34.966861586553648],[-90.012593345029259,34.966847931852094],[-90.012605076331781,34.966831879541964],[-90.012617216971805,34.966813350283957],[-90.012626364305305,34.966798055559437],[-90.012634356393619,34.96678219258775],[-90.012638547287622,34.966764161557514],[-90.012641047424538,34.966745572585161],[-90.012642739737828,34.966726340563746],[-90.012643445070424,34.966705793455652],[-90.012642714582086,34.966676030855346],[-90.012637902966361,34.966654398281598],[-90.012634294875838,34.966638647102883],[-90.012630212027787,34.966622489928788],[-90.012625653327518,34.966605926756429],[-90.012619459679968,34.966582073017314],[-90.012612953244769,34.966557276458644],[-90.012607062937207,34.966534263651425],[-90.012600666810073,34.966506171759519],[-90.012595398505368,34.966480907022188],[-90.01259149142065,34.966458148245955],[-90.012591752952559,34.966435716880426],[-90.012594233151347,34.966413252612867],[-90.012597799746572,34.966390194468424],[-90.012603216730454,34.966365224772765],[-90.012611202143191,34.966339544322295],[-90.012618221439467,34.966318153923979],[-90.012623031825171,34.966303003692495],[-90.012628332197224,34.966287441900285],[-90.012633289925944,34.966271291471401],[-90.012638688163591,34.966255061978281],[-90.01264369646735,34.966238577252291],[-90.012650364471213,34.966214317577524],[-90.012656161198635,34.966188276181093],[-90.012660099260444,34.966164584408787],[-90.012663544706115,34.966136919639972],[-90.01266600779411,34.966119401464795],[-90.012668096716396,34.966101235075676],[-90.012670208869181,34.96608272710624],[-90.012672367480434,34.966063536877719],[-90.012674995370915,34.966043628547887],[-90.012677917776131,34.966024294304304],[-90.012681772902553,34.96600249260802],[-90.01268546162494,34.965981242146711],[-90.012689865023333,34.965958401648621],[-90.012693874878551,34.965939043232581],[-90.012698252423249,34.965917778363476],[-90.012702557243728,34.965897191176708],[-90.012707256270488,34.965876885374804],[-90.012711918934002,34.965856918413905],[-90.012716712997658,34.965836670553841],[-90.01272310940665,34.965819431386159],[-90.012729878645771,34.965801495496301],[-90.012736912785968,34.965784426578473],[-90.012743879961803,34.965767681096402],[-90.012751110940371,34.965751803484885],[-90.012762264153409,34.965729496417687],[-90.012780841164698,34.965702247479264],[-90.012795896392433,34.965682915507543],[-90.012811623168062,34.965663786324832],[-90.012827348841327,34.965644657137148],[-90.012838558704004,34.965631695325861],[-90.012849321222689,34.965618598921587],[-90.012860628573151,34.965605346203908],[-90.012872032319692,34.965591802577961],[-90.01288993736118,34.965569783742616],[-90.012904818811194,34.965550635189828],[-90.012915616138102,34.96553618672781],[-90.012930534963573,34.965515310230998],[-90.012945657251805,34.965491954437901],[-90.012954833473998,34.965476498405174],[-90.012963595371644,34.965460864598683],[-90.012975749961257,34.965438396993434],[-90.012987256844596,34.965411567466397],[-90.012993880956458,34.965394039524909],[-90.013000052458352,34.965376605039204],[-90.013006282175112,34.965358842586539],[-90.013011715766581,34.965341935292713],[-90.013016389360544,34.965322790450138],[-90.013020382413785,34.965304907615959],[-90.013023910743911,34.965287417480361],[-90.013027402713192,34.965270266186039],[-90.013032385796947,34.965245032104448],[-90.013039221929446,34.96521494240433],[-90.013044823106853,34.965188451557168],[-90.013050227792334,34.965168555947606],[-90.013055856782174,34.965151799705154],[-90.013065509154103,34.965134968436573],[-90.013082661898451,34.965120795428106],[-90.013100705707657,34.965109225389405],[-90.013118595835792,34.965100284411335],[-90.013138847359826,34.965094862525298],[-90.013160465373247,34.96509030780733],[-90.013183373600896,34.965087368241811],[-90.013210854353915,34.965086184989708],[-90.013244800572821,34.965086283476836],[-90.013270139123961,34.965092229376296],[-90.013295195740767,34.965099153479443],[-90.013323183855832,34.965108014359942],[-90.013343117420789,34.965114804162688],[-90.013363616663781,34.965121427786698],[-90.013391773006418,34.965127861546193],[-90.013420261485109,34.965132798900434],[-90.013449267785006,34.965136078081017],[-90.01347029976418,34.96513298207941],[-90.0134924799967,34.965128584730323],[-90.013519398782933,34.965119571017247],[-90.013536257228523,34.965107846352169],[-90.013553998610718,34.965093774885418],[-90.01357038518195,34.965078927324221],[-90.013585712298436,34.965063662314094],[-90.013605953607026,34.965036618645726],[-90.013623111886304,34.965011125428703],[-90.013638709620537,34.964981439160375],[-90.013652539000446,34.964952853387238],[-90.01366173248006,34.964931494787024],[-90.013669773160117,34.964909506658529],[-90.013676806651986,34.964882102796857],[-90.013682912863288,34.964855211210065],[-90.01368980777805,34.964830216502563],[-90.013699320657949,34.964809504162886],[-90.013716977842449,34.964786637206039],[-90.013742175588789,34.964768764175361],[-90.013765113191596,34.964757948790776],[-90.013789661742265,34.964755545269703],[-90.013817626979574,34.964754205404574],[-90.013846806868841,34.964753356401445],[-90.013868886237191,34.964752908780028],[-90.013890150756879,34.964752220132631],[-90.013918105471888,34.9647510514882],[-90.013946482125277,34.964749790198347],[-90.013977080824347,34.964748177778894],[-90.013998958481537,34.964746095312421],[-90.014023321687716,34.96474404551838],[-90.014055932789688,34.964741362063627],[-90.014090534113038,34.964728364271018],[-90.016230779569582,34.964793095116448],[-90.016277445183576,34.964794655631735],[-90.016350494170709,34.964826886710362],[-90.016454402964641,34.964872179748262],[-90.016576001673556,34.964926333010858],[-90.016622796469051,34.964946703853023],[-90.016693788539158,34.964978275824961],[-90.01676260207222,34.965008581878834],[-90.01718291122998,34.965192573106535],[-90.017783218731608,34.965313653909682],[-90.017872413581443,34.965342213937255],[-90.017948701983741,34.965366644289794],[-90.017993701360098,34.965381059607608],[-90.018039269504726,34.965395646755475],[-90.018092600547874,34.965412733868064],[-90.018140420595515,34.965428047065046],[-90.018182348991985,34.965441477193743],[-90.018314764139774,34.965483895837316],[-90.018364147089073,34.965499723209085],[-90.018425625136814,34.965519411194222],[-90.01850710880359,34.965545520508044],[-90.018583206158198,34.96556989768407],[-90.018664463537249,34.965595933290174],[-90.018738806707731,34.965619750543333],[-90.018813824728198,34.965643783137395],[-90.018969810105062,34.965693298661542],[-90.019009516384727,34.965661006774646],[-90.019086919530892,34.965592968893908],[-90.019139242707993,34.965548306845626],[-90.019408616247446,34.965320613731102],[-90.019497445119782,34.965279319872153],[-90.019581732430197,34.965240149700882],[-90.019637335408675,34.965214548515014],[-90.019693986836089,34.965188227966337],[-90.019721904952576,34.965180302581118],[-90.019760058132221,34.965175555012799],[-90.020052428062641,34.965168890779587],[-90.020353993256592,34.965179386610757],[-90.020403590784966,34.965181457897323],[-90.020471494212728,34.965188587367685],[-90.020740728017458,34.965215520341566],[-90.020894912005915,34.965296593207363],[-90.020912938663244,34.965302821583123],[-90.020972881579993,34.965333573882674],[-90.021031925060583,34.965362718394232],[-90.021078028910566,34.965386618446402],[-90.021110932769218,34.96540318116724],[-90.021130931008997,34.965417070417665],[-90.021152507349711,34.965435245510122],[-90.021164515476258,34.965448493131575],[-90.021176521357958,34.965467819083308],[-90.021184103718582,34.965495422306127],[-90.021198295241319,34.965523419312198],[-90.021204390505687,34.965551040345858],[-90.021202460165071,34.965578998620316],[-90.021199598479583,34.965607685560059],[-90.021190908181296,34.965635741843052],[-90.021184459514501,34.965666075488365],[-90.021180304907602,34.965689194581721],[-90.021175280810382,34.965713767248111],[-90.021170352842049,34.965737245826233],[-90.021165839861013,34.965760730879303],[-90.021162444929288,34.965793157377703],[-90.021162550828379,34.965823265384344],[-90.021165562862862,34.965843575114256],[-90.021169777141253,34.965863910469963],[-90.021179282140082,34.965886963711675],[-90.021192705307939,34.9659134407352],[-90.021204269638972,34.965931698255908],[-90.02121777340723,34.965949630836711],[-90.02123418697839,34.96596661628022],[-90.021246642284524,34.965978336217979],[-90.021259200598877,34.965990325946422],[-90.02127305748796,34.966002928376348],[-90.021289157041537,34.966017252888065],[-90.021304100408528,34.966028069670571],[-90.021321982339785,34.966040750944799],[-90.021343599018721,34.966055849527983],[-90.021359978899284,34.966066424805121],[-90.021379619140589,34.966080347348331],[-90.021403966031272,34.966093638356739],[-90.021423373988284,34.966106445228419],[-90.021446816576415,34.966119400376932],[-90.021469240220725,34.966130194883057],[-90.021493868257565,34.966145589629548],[-90.021517471470531,34.966158641629754],[-90.021540342663116,34.966171259961492],[-90.021563537869369,34.966184777845534],[-90.021585859849466,34.966197558818898],[-90.021609401567972,34.966212109720004],[-90.021625046127454,34.966222559578149],[-90.021643194789505,34.966234229184593],[-90.021659493677944,34.966246259120005],[-90.021682460553023,34.966265431060187],[-90.021702866168354,34.966281708245027],[-90.02171574196862,34.966294903951379],[-90.021738650486924,34.966315613569193],[-90.021759523845773,34.966335035227814],[-90.021774258172329,34.966348746806226],[-90.021789983936159,34.966365527587989],[-90.02180544419295,34.966381576627619],[-90.021820316472486,34.966397612438492],[-90.021835242198847,34.966413994533411],[-90.021849938934693,34.966430412096287],[-90.021862890969075,34.966445177370431],[-90.021876284193709,34.96646026197908],[-90.021888350348988,34.966474449866787],[-90.021900217159256,34.966488072947463],[-90.021911419890174,34.96650124721527],[-90.021928396271605,34.966520045879761],[-90.021949425208035,34.966540918303686],[-90.021969289731132,34.966556107833938],[-90.021988816872124,34.966569591893581],[-90.022014009418086,34.966585476555849],[-90.022038801812073,34.966599749333447],[-90.022066297746349,34.966609420028227],[-90.022087250792652,34.966615339328037],[-90.022105624450091,34.966622280544698],[-90.02213402522824,34.966628099933651],[-90.02215827258226,34.966632168915865],[-90.022186832410725,34.966635601715808],[-90.022217562026626,34.966636001350075],[-90.022250936359811,34.966634609399946],[-90.022277267707324,34.966632849647468],[-90.02229652957881,34.966631067276694],[-90.022326269618617,34.966627900098402],[-90.022359304041757,34.966619960168586],[-90.02238052472822,34.966613883884811],[-90.022401895830228,34.966607412255058],[-90.022423822890843,34.966601314335037],[-90.022444558024091,34.96659419564638],[-90.022464385720426,34.966586403968158],[-90.022482820510149,34.966579196453218],[-90.02250074512817,34.966571667622397],[-90.022524274834154,34.966560475302963],[-90.022546345431138,34.966544199692017],[-90.0225592932007,34.966532583656864],[-90.022578570675606,34.966513611028006],[-90.022595785706983,34.966494476270356],[-90.02260632610917,34.966481243216599],[-90.022615749336822,34.966462561770349],[-90.022624266759152,34.966444515316269],[-90.022633112247149,34.966424845325534],[-90.022641178111911,34.966406323563199],[-90.022651580248677,34.966381269711349],[-90.022661282858081,34.966357031665261],[-90.022671310255163,34.966331167369518],[-90.022681598794421,34.966304002077123],[-90.022691044614106,34.966279325276858],[-90.022701802911698,34.966246356881683],[-90.02271224687216,34.966213112745521],[-90.022720035532274,34.966187950340974],[-90.022728565059353,34.966159139042489],[-90.022738328618274,34.966126862199737],[-90.022745128604925,34.96610485046395],[-90.022752228905617,34.966079862976542],[-90.022759231414625,34.966055543197569],[-90.02276608669284,34.966032224529393],[-90.022772354243855,34.966009985171439],[-90.022778524004408,34.965988413522027],[-90.022785256513771,34.965965125187147],[-90.022791248685337,34.965946795523635],[-90.022797953626522,34.965926748656806],[-90.022804658564411,34.965906701789528],[-90.022811697550281,34.965887217366301],[-90.022823117703268,34.965848586069065],[-90.022831216828351,34.965830509683137],[-90.022844258589288,34.965813676383782],[-90.022858045662787,34.965796657491033],[-90.022879699012051,34.965772193068339],[-90.022898715317481,34.965752719424799],[-90.022916350693663,34.965735883436246],[-90.022933822841779,34.965719934935684],[-90.022947724189336,34.965707158450478],[-90.022961566690739,34.965694305191761],[-90.022972078295524,34.965686632947531],[-90.022983475415103,34.965677313349694],[-90.022993350157904,34.965668651509702],[-90.023011119114599,34.96565645550475],[-90.023030985548047,34.965642962290985],[-90.023114232654322,34.96562696095252],[-90.023178362845414,34.965578695458369],[-90.023202534601324,34.965573117844436],[-90.023229178583932,34.965569953354368],[-90.023252007104389,34.965568638765482],[-90.023278707765613,34.965566705761674],[-90.02330540697875,34.965566319600896],[-90.023334921956391,34.965567264821182],[-90.023362048389458,34.965567708151944],[-90.023398449174323,34.96556857357686],[-90.023420353761907,34.965569513777346],[-90.023449578422188,34.965571077510852],[-90.023481795901432,34.965572900371747],[-90.023508543812184,34.965576158769139],[-90.023537598067762,34.965579939562801],[-90.023565867855808,34.965583835534417],[-90.023594137646597,34.965587731499475],[-90.023622407443483,34.965591626556538],[-90.023651555608623,34.965596062000067],[-90.023678263684715,34.965600307323605],[-90.023705877464195,34.965605103920772],[-90.02373434992694,34.965610143382236],[-90.023757304218165,34.965614693717889],[-90.023792645169891,34.965623095877646],[-90.023825300972661,34.965631248699609],[-90.023853390002557,34.965639833378795],[-90.023884957304901,34.965649749310906],[-90.023914309228218,34.965659123240201],[-90.023949112205898,34.965670532053281],[-90.023986418312901,34.965682843253028],[-90.024015164477035,34.965692570778117],[-90.024048614908892,34.965703746253439],[-90.024075913582536,34.965713150971929],[-90.024114795824431,34.965726533437994],[-90.024147483394856,34.965737908863922],[-90.024180945801476,34.965749404340634],[-90.024213633386864,34.96576078065025],[-90.024247025367401,34.965772081220805],[-90.024283408623148,34.965784348514916],[-90.024312928408065,34.965793661477882],[-90.024346362784001,34.96580417698415],[-90.024378879223008,34.96581419255709],[-90.024412179278613,34.965824322793218],[-90.024444919530922,34.96583393688033],[-90.024479622736521,34.965842500376951],[-90.024516556974049,34.965851234498288],[-90.024548931451633,34.96585882121429],[-90.0245755466986,34.965864786933111],[-90.02461830750994,34.965873836012278],[-90.024662426574039,34.965883067912991],[-90.024694265464433,34.965888357288705],[-90.024733497099504,34.965894466811932],[-90.024772694365709,34.965900398653659],[-90.024812711582555,34.96590639206002],[-90.024854406348567,34.965912688087293],[-90.02489606674601,34.965918806431439],[-90.024939403605316,34.965925225588592],[-90.024982824791223,34.965931644042954],[-90.025032863707082,34.965938229820097],[-90.025085417876866,34.965944824664966],[-90.025149873596163,34.965952382668142],[-90.025196340195976,34.965954092496247],[-90.025204377689903,34.965954388726104],[-90.025250108233422,34.965948546294563],[-90.025324457090733,34.965944231336216],[-90.025350661474519,34.965945598553972],[-90.025446568323744,34.96595060217723],[-90.025558023033255,34.965958656802712],[-90.025643288234761,34.965964882682883],[-90.025862939371606,34.965982344379952],[-90.025968068185307,34.965990398839544],[-90.026052622244052,34.965984449731522],[-90.026124881861506,34.965979525940853],[-90.026193258518845,34.965974596794354],[-90.026246735429282,34.965971050588095],[-90.026371364579958,34.9659641208682],[-90.026469562677107,34.965958748615037],[-90.026629712046685,34.96595571240595],[-90.026766206790199,34.965953801656752],[-90.026870605670027,34.965952339807622],[-90.026946888226306,34.965951272078001],[-90.026998946399956,34.965950542533548],[-90.027084849280911,34.965949339429812],[-90.027192271945694,34.965947764137475],[-90.02730145678153,34.965951121304727],[-90.027394299524957,34.965954745496397],[-90.027478071846687,34.965957863608232],[-90.027611976848263,34.965947105970173],[-90.027700252524866,34.965938858325252],[-90.027778263392065,34.965933264740308],[-90.027828665520417,34.965928793347508],[-90.027901719791814,34.965925394815159],[-90.027993983387063,34.965936955078746],[-90.028066948776569,34.965947777173106],[-90.028201021648584,34.965972938562942],[-90.028297602145102,34.965997444051844],[-90.028365395347748,34.966018141656122],[-90.028444119785945,34.966042219982697],[-90.028502409961192,34.966062147269682],[-90.028600299068344,34.966093494045637],[-90.028668041364497,34.966103729364292],[-90.028734575369455,34.966112617583555],[-90.028785360392604,34.966109444812567],[-90.028901917504243,34.966098230295763],[-90.028964192960728,34.966086983303853],[-90.029019386076058,34.966079792994499],[-90.029098326897511,34.966096650990416],[-90.029192240892925,34.966147371668733],[-90.029243889344968,34.966193841681587],[-90.029272984006255,34.966227126790713],[-90.029276794364051,34.966287390572163],[-90.029269957433854,34.966361956816719],[-90.029274189084347,34.966438010186224],[-90.029287971331584,34.966569575847394],[-90.029307122123356,34.966634574475464],[-90.029325830453686,34.966699599035195],[-90.029338747917592,34.966743664387174],[-90.029379670111879,34.966830377038988],[-90.029399099068428,34.966871387510942],[-90.029426566826189,34.966922753883907],[-90.029511093156813,34.967035148242701],[-90.029533107067294,34.967087581760097],[-90.029595214332232,34.967311675561334],[-90.029632272608893,34.967402257307363],[-90.029698283576593,34.967563607816764],[-90.029720778912051,34.967618593544422],[-90.029752711276672,34.967696774995645],[-90.029774593129275,34.967750364667928],[-90.02983413319879,34.967896188030288],[-90.029853267225093,34.967960289596128],[-90.02987450722209,34.96803622948044],[-90.029887775433039,34.968080934755335],[-90.029903365977432,34.968135818458066],[-90.029916044228997,34.968176299059955],[-90.02993443122881,34.968252072250472],[-90.029950676406003,34.968321288500391],[-90.029959833214335,34.968362006389647],[-90.030010780721128,34.96846841664032],[-90.030036953942073,34.968520076200988],[-90.030072409629597,34.968589678443166],[-90.030104511798072,34.968650201220917],[-90.030128400708193,34.968691491327689],[-90.030155932258808,34.968739204190634],[-90.030182022437316,34.96878491678379],[-90.030205115022923,34.968823609672882],[-90.030258754980224,34.968912727209975],[-90.030291782344662,34.968967113513294],[-90.03032193073669,34.96901676282625],[-90.030345293075214,34.969056878815501],[-90.030359630312901,34.96918134423148],[-90.030363988698184,34.969245887500925],[-90.03036807419943,34.969295915280199],[-90.030388980413122,34.9693464357347],[-90.030408960791817,34.969394718332147],[-90.030450744032933,34.969495689738906],[-90.030499948426467,34.969614592830645],[-90.030524598965343,34.969675205979932],[-90.030559989870696,34.969759684187935],[-90.030577721439187,34.969802531842198],[-90.030606646178796,34.969866422406966],[-90.030626032997915,34.969916864210575],[-90.030679833189026,34.969994589690536],[-90.030662613101683,34.970030889679876],[-90.030675495488694,34.970087207001846],[-90.03068365194359,34.97015025433042],[-90.03071462580823,34.970257019222366],[-90.030738141998043,34.970351333918316],[-90.030753133752128,34.970415061722626],[-90.030796880988532,34.970507810549009],[-90.030843206223395,34.970620502679452],[-90.030863954697395,34.970667332200648],[-90.03088610355087,34.970721980592792],[-90.03091526658055,34.970791803971714],[-90.030957747865244,34.970863503926772],[-90.031023211748604,34.970938843358532],[-90.031125442156537,34.970976110468186],[-90.031161573008021,34.970973624092608],[-90.031206278429224,34.970970547870323],[-90.031332976261467,34.970949747044799],[-90.031424454469345,34.970911097683349],[-90.031474496196822,34.970887137707926],[-90.031507836704733,34.970975707523635],[-90.031560729192734,34.971115621716315],[-90.031621080352238,34.971269634730085],[-90.031687189856939,34.971446329338761],[-90.031750826465341,34.971614776003953],[-90.031810344972399,34.971768786845097],[-90.031874801446705,34.971941355903404],[-90.031919449894517,34.972054117357338],[-90.031970688668324,34.97219024845726],[-90.032027729904556,34.972337040702136],[-90.03208473487399,34.97249379361218],[-90.032174020491681,34.972722748941756],[-90.03219550435719,34.972780844296445],[-90.032218653430206,34.972839974108616],[-90.032245924638573,34.972912851905768],[-90.032270730003489,34.972975764601472],[-90.032288085603142,34.973021829154895],[-90.032312885076166,34.973085771257679],[-90.032338507434503,34.973153493280932],[-90.032360813441343,34.97321502508283],[-90.032384788438208,34.97327656101627],[-90.03240546072567,34.973328472322116],[-90.032431079627273,34.973396881203385],[-90.032460832036875,34.973475947991787],[-90.032486453541182,34.973543669978007],[-90.03250959047719,34.973606234140341],[-90.032531895476822,34.97366810934858],[-90.032554230642162,34.973721741966244],[-90.032570743283401,34.973770208495878],[-90.032597203218401,34.973836902199878],[-90.032622827452528,34.973903938173699],[-90.032645143912873,34.973962722389317],[-90.032672433435025,34.974030791906017],[-90.032716262155162,34.974140115661314],[-90.032741048330152,34.974208178963778],[-90.032767495995088,34.974278307037892],[-90.032801383852785,34.974367687293558],[-90.032833621462359,34.974452254335375],[-90.032878265041688,34.974567075148627],[-90.032906366872396,34.974641328611469],[-90.032930351463705,34.974700460339626],[-90.032965050339698,34.974796367989249],[-90.032990673919926,34.974863745516096],[-90.033019610443716,34.974938001915504],[-90.033043588933765,34.974998850824427],[-90.033067573726186,34.975057982523005],[-90.033086569116719,34.97511229366242],[-90.033105590851108,34.975159392537037],[-90.033131199612725,34.975230893126401],[-90.033142763541875,34.975263548904572],[-90.033165079482899,34.975322676456194],[-90.033180782105717,34.975364615451539],[-90.033197304209594,34.975410677799324],[-90.033214658326713,34.975457429089097],[-90.033229513971136,34.975502800425083],[-90.033247690100168,34.975552988181967],[-90.033266686974272,34.975606955848946],[-90.033290609474506,34.975683259549115],[-90.033311234078994,34.975748565786361],[-90.033324430839187,34.975791185457545],[-90.033345047829201,34.975858894876353],[-90.033364801702874,34.975934157928585],[-90.03338621210321,34.976012859509297],[-90.033405136551778,34.976086746728249],[-90.033420748042928,34.976153756879818],[-90.033436337020675,34.97622694986768],[-90.033446994088465,34.976279523128063],[-90.033458449375004,34.976342058235893],[-90.033469096456699,34.976397379021208],[-90.033480526740149,34.976466782945096],[-90.033491148814122,34.976528973448005],[-90.033500877564904,34.976607302712168],[-90.033510497438556,34.976715511336998],[-90.033518549690172,34.97679589712223],[-90.033524034579116,34.976893792212529],[-90.033527869221885,34.976986531566389],[-90.033529256640165,34.977063810797432],[-90.033530614025253,34.977149331708198],[-90.033529556720879,34.977210462131538],[-90.033527661140624,34.977272620816592],[-90.033526751523937,34.977293225211035],[-90.036512706020233,34.977289913939174],[-90.042956126688779,34.977282824882174],[-90.043089651083463,34.977282801563931],[-90.043223177904608,34.977282090314993],[-90.045300353121632,34.977272610490857],[-90.051763044195525,34.97724312027924],[-90.051763235331052,34.977265350846729],[-90.054461104600563,34.977272459133374],[-90.057917081431881,34.977281477202588],[-90.057877846046551,34.977214918671628],[-90.060533238726435,34.977202693510463],[-90.060540750548483,34.977202366941619],[-90.060538936001123,34.977307343236554],[-90.06088757544677,34.977304805094583],[-90.060983559054222,34.977300899077584],[-90.061149637901565,34.977298523899037],[-90.061322395142483,34.977295820009203],[-90.061541047683036,34.977293905496225],[-90.061688763633725,34.977292518810877],[-90.061711296844095,34.977292225772146],[-90.06193328741827,34.977290661463769],[-90.062225375553041,34.977289596715224],[-90.062364744014104,34.97728887745906],[-90.062413146217096,34.977289328901875],[-90.062558351805407,34.977289996223618],[-90.062816220045477,34.977290227520079],[-90.062983953172136,34.977292661738133],[-90.063068238709519,34.977293192804183],[-90.063268521604741,34.977294325292945],[-90.063536392833839,34.977298355193966],[-90.063816783072269,34.977301725402263],[-90.064004541407115,34.977305232988222],[-90.064066292635999,34.977306400267729],[-90.064319977114138,34.977310053536648],[-90.064327487809507,34.977310070175385],[-90.064466848445875,34.977311752599505],[-90.06462456968957,34.977313132050249],[-90.064654613568109,34.977313198529508],[-90.064695143727448,34.977313288200349],[-90.064891617751485,34.977313722697133],[-90.065124449331933,34.97731423718605],[-90.065182032431792,34.977314364358797],[-90.065293023833121,34.977314609407181],[-90.065525858777875,34.977314092800874],[-90.065750346248137,34.977314587686969],[-90.065962313684423,34.97731539803582],[-90.066229362917952,34.977315298854627],[-90.066495580956015,34.97731451037096],[-90.066760960037101,34.977314749794893],[-90.067030511716709,34.977315341233968],[-90.067299232214125,34.977314899920707],[-90.067561276551189,34.977314099956601],[-90.067594870481798,34.977313991389643],[-90.067624701330317,34.977313895312079],[-90.067964350658215,34.977315324931226],[-90.068233065642104,34.977316255316723],[-90.068495946710613,34.977315111717921],[-90.06873128634814,34.977314250983518],[-90.068998344434874,34.977311741621406],[-90.069217829247634,34.977310501985173],[-90.06941561538143,34.97730955823841],[-90.069527444634375,34.977309114348593],[-90.06955832305151,34.977308837983223],[-90.069815363547463,34.977306991951927],[-90.069936372544191,34.977306224161858],[-90.070089094476401,34.977305181560183],[-90.07019257960188,34.977304375524234],[-90.070403831895376,34.977302797699572],[-90.070442109380068,34.977302511890166],[-90.070445710309826,34.977302519685949],[-90.070458799820969,34.977302548023026],[-90.070484359277671,34.977302508701811],[-90.070527303722571,34.977302442099074],[-90.070551432865699,34.977302405076749],[-90.07057062906506,34.977302103172427],[-90.070782604244698,34.977300501013005],[-90.071042150460272,34.977297970913661],[-90.07132172738126,34.977295140037235],[-90.071544553509085,34.977292873071541],[-90.071551229685284,34.977292887464351],[-90.071770716626602,34.977291299773682],[-90.072000214549107,34.977290420120276],[-90.07220133981059,34.977289135577642],[-90.072280621588519,34.977288962600021],[-90.072384937932355,34.97728884337134],[-90.072718747840867,34.977289216809815],[-90.072851442294748,34.977288127749006],[-90.072979130692374,34.977286340921232],[-90.073194440641956,34.977285772034421],[-90.073300426029647,34.977285655594805],[-90.073375535196249,34.977285472966948],[-90.073554131596694,34.977283107618568],[-90.073705185509468,34.977281713455817],[-90.073862921010928,34.977278616160334],[-90.074022323393308,34.977276552552773],[-90.074165035315673,34.977274109670354],[-90.074317762575845,34.977271344539233],[-90.074467985194843,34.977269260765482],[-90.074497195625213,34.977268636143862],[-90.074603186397042,34.977266801356457],[-90.074753408987135,34.977264373785069],[-90.074888609095865,34.977262257500321],[-90.074981244283165,34.977261767734724],[-90.075008784585449,34.977261482881133],[-90.075132295988169,34.977261058680682],[-90.075257478589108,34.977259951017579],[-90.075379323099796,34.97725883613434],[-90.075523696471109,34.977258799295356],[-90.075685598050754,34.97725811258794],[-90.075784908312912,34.977257636371988],[-90.075946807720626,34.977257292756107],[-90.076126235332254,34.977256299163983],[-90.07632485263224,34.977256376256612],[-90.076492596910384,34.977255013950263],[-90.076761325864368,34.977251804159167],[-90.07699499950418,34.977249893554827],[-90.077158573318897,34.977248178080139],[-90.07740476263622,34.977246979979036],[-90.077610893828606,34.977246040470853],[-90.077887132356395,34.977243187446845],[-90.078023163696301,34.977242099753759],[-90.078254336923635,34.977239151135301],[-90.078270193904928,34.977238840999235],[-90.078362744711484,34.977237648967673],[-90.078362831191058,34.97723766176928],[-90.078513886040938,34.977235918181734],[-90.078756741482877,34.977233336565504],[-90.078962875859261,34.977231707879902],[-90.079159829393816,34.977230059627765],[-90.079422710186492,34.977228892371976],[-90.079595460456531,34.977227879690865],[-90.079744840934879,34.977227848295563],[-90.079891718906637,34.977227468048987],[-90.080041102596496,34.977226749406995],[-90.080318175493204,34.977223549148171],[-90.080526810230339,34.977222953350761],[-90.080711243790859,34.977221963405114],[-90.080893172729134,34.977221311417026],[-90.081118497900974,34.977220749299271],[-90.081309608682588,34.977219428868899],[-90.081589180929527,34.97721794811946],[-90.081794480674546,34.977215969451962],[-90.081998113466639,34.97721330009815],[-90.082218436732148,34.977211008363845],[-90.082439593414634,34.977208717951726],[-90.082633213007398,34.977206026843625],[-90.082875235852867,34.977202748382012],[-90.083055500932318,34.97720037249978],[-90.083227410394514,34.977201757029988],[-90.08350697730738,34.977201645631943],[-90.083714792014575,34.977195891002154],[-90.083965998758842,34.97719159891134],[-90.08402358180426,34.977191373704407],[-90.084187984681463,34.977191024240135],[-90.084506791812188,34.977185495932595],[-90.084850628275532,34.977181735230438],[-90.084888183887159,34.977181468629823],[-90.085124361837586,34.977179204059951],[-90.08536387890004,34.977176602404882],[-90.085462354595833,34.977176460014171],[-90.085565837361472,34.977175984315636],[-90.08580951668111,34.977176824719379],[-90.086116635209493,34.977172985580985],[-90.086287711138525,34.977173677192646],[-90.086349401817344,34.977174304780085],[-90.086365709637079,34.977174471359767],[-90.086540566151015,34.977176252019191],[-90.086760886087774,34.97717463892478],[-90.087056317160773,34.977172147455136],[-90.087272465500433,34.977170181527292],[-90.087468582229931,34.977169204991341],[-90.087754827384131,34.977168752988632],[-90.088036908046178,34.977165202700661],[-90.088280588484665,34.977166038147764],[-90.088513426209161,34.977164446232784],[-90.088722904533611,34.97716074795386],[-90.088970757508349,34.977161246976493],[-90.089213607434758,34.977160361657184],[-90.089486503275751,34.977158849302356],[-90.089699298204764,34.977162023988846],[-90.089898756125095,34.9771603633423],[-90.090100716509724,34.977158707380738],[-90.090294331672425,34.977157033479465],[-90.090554703588211,34.97715755432457],[-90.090805897709487,34.977157026849099],[-90.09082926432221,34.977157073515791],[-90.091273223995387,34.97716036342846],[-90.091485192657018,34.977161129226303],[-90.091496761228385,34.977161064827719],[-90.091540266852391,34.977160823343645],[-90.091803987111078,34.977159359624068],[-90.092126949219605,34.977159658130923],[-90.092231143435896,34.977160431152022],[-90.092316382697135,34.977161063700294],[-90.092429876686211,34.977161632355752],[-90.092771203319884,34.977160249259136],[-90.092995689749884,34.977160693773492],[-90.09304743121254,34.97716079616994],[-90.093392923350379,34.977161479334406],[-90.093613241283592,34.977160883235108],[-90.093991282793866,34.977160599517099],[-90.094295055933117,34.977159136309758],[-90.094596325398612,34.977157324877027],[-90.094874231322208,34.977154779929819],[-90.095152138123339,34.977151548360482],[-90.095428393847001,34.977142472559009],[-90.095572777075546,34.977138977455205],[-90.096470644351015,34.977133356656395],[-90.09644505598061,34.9752987974598],[-90.096443404251929,34.975187817419787],[-90.096441503642623,34.975048029901195],[-90.096438212384129,34.974731698245819],[-90.096435703057097,34.974355278784493],[-90.096432516849191,34.974049256951837],[-90.096428004441421,34.973703683178258],[-90.096428479061558,34.973662838509405],[-90.096422162902869,34.973246938835473],[-90.096420672970197,34.973188562023772],[-90.09641566180818,34.972859532977274],[-90.096414011403795,34.972758766098131],[-90.096399754652211,34.971055519212186],[-90.09639806242653,34.970862041909648],[-90.096399727843149,34.970787196689095]]]},"properties":{"OBJECTID":3,"NAME":"HORN LAKE","Acres":10463.484353469999,"DCMS_GIS.GISDBADMIN.Municipalities.Area":16.349194300000001,"Mayor":"Jimmy Stokes","POP2010":26066,"POP2020":26736,"Shape.STArea()":455727091.65037739,"Shape.STLength()":107287.41315189352}}]}